[{"OBJECT_NAME":"ONEWEB-0588","OBJECT_ID":"2023-004P","EPOCH":"2026-01-26T07:04:10.075584","MEAN_MOTION":13.18686138,"ECCENTRICITY":0.00021365,"INCLINATION":87.919,"RA_OF_ASC_NODE":3.6504,"ARG_OF_PERICENTER":94.6448,"MEAN_ANOMALY":265.4928,"EPHEMERIS_TYPE":0,"CLASSIFICATION_TYPE":"U","NORAD_CAT_ID":55153,"ELEMENT_SET_NO":999,"REV_AT_EPOCH":15099,"BSTAR":9.6831255e-5,"MEAN_MOTION_DOT":5.1e-7,"MEAN_MOTION_DDOT":0},{"OBJECT_NAME":"ONEWEB-0598","OBJECT_ID":"2023-004Q","EPOCH":"2026-01-25T11:38:49.181280","MEAN_MOTION":13.11418583,"ECCENTRICITY":0.00014184,"INCLINATION":87.8813,"RA_OF_ASC_NODE":49.4753,"ARG_OF_PERICENTER":111.2591,"MEAN_ANOMALY":248.8689,"EPHEMERIS_TYPE":0,"CLASSIFICATION_TYPE":"U","NORAD_CAT_ID":55154,"ELEMENT_SET_NO":999,"REV_AT_EPOCH":14719,"BSTAR":-0.0012312673,"MEAN_MOTION_DOT":-4.24e-6,"MEAN_MOTION_DDOT":0},{"OBJECT_NAME":"ONEWEB-0599","OBJECT_ID":"2023-004R","EPOCH":"2026-01-26T06:02:58.136928","MEAN_MOTION":13.17651809,"ECCENTRICITY":0.00015594,"INCLINATION":87.9084,"RA_OF_ASC_NODE":34.0717,"ARG_OF_PERICENTER":91.1431,"MEAN_ANOMALY":268.9879,"EPHEMERIS_TYPE":0,"CLASSIFICATION_TYPE":"U","NORAD_CAT_ID":55155,"ELEMENT_SET_NO":999,"REV_AT_EPOCH":14879,"BSTAR":-6.9675528e-5,"MEAN_MOTION_DOT":-1.4e-7,"MEAN_MOTION_DDOT":0},{"OBJECT_NAME":"ONEWEB-0614","OBJECT_ID":"2023-004S","EPOCH":"2026-01-26T02:10:26.245056","MEAN_MOTION":13.11417602,"ECCENTRICITY":0.00021771,"INCLINATION":87.8813,"RA_OF_ASC_NODE":49.3633,"ARG_OF_PERICENTER":92.4443,"MEAN_ANOMALY":267.6934,"EPHEMERIS_TYPE":0,"CLASSIFICATION_TYPE":"U","NORAD_CAT_ID":55156,"ELEMENT_SET_NO":999,"REV_AT_EPOCH":14721,"BSTAR":-0.0015538101,"MEAN_MOTION_DOT":-5.38e-6,"MEAN_MOTION_DDOT":0},{"OBJECT_NAME":"ONEWEB-0616","OBJECT_ID":"2023-004T","EPOCH":"2026-01-26T01:35:41.380224","MEAN_MOTION":13.17650249,"ECCENTRICITY":0.00011339,"INCLINATION":87.9089,"RA_OF_ASC_NODE":34.105,"ARG_OF_PERICENTER":60.7089,"MEAN_ANOMALY":299.4155,"EPHEMERIS_TYPE":0,"CLASSIFICATION_TYPE":"U","NORAD_CAT_ID":55157,"ELEMENT_SET_NO":999,"REV_AT_EPOCH":14898,"BSTAR":0.00010533727,"MEAN_MOTION_DOT":5.4e-7,"MEAN_MOTION_DDOT":0},{"OBJECT_NAME":"ONEWEB-0617","OBJECT_ID":"2023-004U","EPOCH":"2026-01-26T03:43:12.964224","MEAN_MOTION":13.1141624,"ECCENTRICITY":0.00021166,"INCLINATION":87.8814,"RA_OF_ASC_NODE":49.3318,"ARG_OF_PERICENTER":99.6788,"MEAN_ANOMALY":260.4579,"EPHEMERIS_TYPE":0,"CLASSIFICATION_TYPE":"U","NORAD_CAT_ID":55158,"ELEMENT_SET_NO":999,"REV_AT_EPOCH":14724,"BSTAR":-0.001097395,"MEAN_MOTION_DOT":-3.76e-6,"MEAN_MOTION_DDOT":0},{"OBJECT_NAME":"ONEWEB-0618","OBJECT_ID":"2023-004V","EPOCH":"2026-01-25T12:50:44.316096","MEAN_MOTION":15.11421177,"ECCENTRICITY":0.00150675,"INCLINATION":86.9035,"RA_OF_ASC_NODE":235.488,"ARG_OF_PERICENTER":100.7098,"MEAN_ANOMALY":259.5838,"EPHEMERIS_TYPE":0,"CLASSIFICATION_TYPE":"U","NORAD_CAT_ID":55159,"ELEMENT_SET_NO":999,"REV_AT_EPOCH":16070,"BSTAR":0.00045350824,"MEAN_MOTION_DOT":7.712e-5,"MEAN_MOTION_DDOT":0},{"OBJECT_NAME":"ONEWEB-0619","OBJECT_ID":"2023-004W","EPOCH":"2026-01-26T02:21:52.408800","MEAN_MOTION":13.17649277,"ECCENTRICITY":0.00019995,"INCLINATION":87.9094,"RA_OF_ASC_NODE":34.0717,"ARG_OF_PERICENTER":77.8357,"MEAN_ANOMALY":282.2999,"EPHEMERIS_TYPE":0,"CLASSIFICATION_TYPE":"U","NORAD_CAT_ID":55160,"ELEMENT_SET_NO":999,"REV_AT_EPOCH":14888,"BSTAR":-7.1103397e-5,"MEAN_MOTION_DOT":-1.5e-7,"MEAN_MOTION_DDOT":0},{"OBJECT_NAME":"ONEWEB-0620","OBJECT_ID":"2023-004X","EPOCH":"2026-01-26T07:15:37.710720","MEAN_MOTION":13.1141539,"ECCENTRICITY":0.00018717,"INCLINATION":87.8811,"RA_OF_ASC_NODE":49.3202,"ARG_OF_PERICENTER":103.2904,"MEAN_ANOMALY":256.8432,"EPHEMERIS_TYPE":0,"CLASSIFICATION_TYPE":"U","NORAD_CAT_ID":55161,"ELEMENT_SET_NO":999,"REV_AT_EPOCH":14723,"BSTAR":-0.00049291515,"MEAN_MOTION_DOT":-1.62e-6,"MEAN_MOTION_DDOT":0},{"OBJECT_NAME":"ONEWEB-0621","OBJECT_ID":"2023-004Y","EPOCH":"2026-01-26T02:25:05.508480","MEAN_MOTION":13.11417718,"ECCENTRICITY":0.00020385,"INCLINATION":87.8825,"RA_OF_ASC_NODE":49.3356,"ARG_OF_PERICENTER":89.9402,"MEAN_ANOMALY":270.1959,"EPHEMERIS_TYPE":0,"CLASSIFICATION_TYPE":"U","NORAD_CAT_ID":55162,"ELEMENT_SET_NO":999,"REV_AT_EPOCH":14718,"BSTAR":-0.00055627543,"MEAN_MOTION_DOT":-1.84e-6,"MEAN_MOTION_DDOT":0},{"OBJECT_NAME":"ONEWEB-0622","OBJECT_ID":"2023-004Z","EPOCH":"2026-01-26T08:02:00.485376","MEAN_MOTION":13.11418286,"ECCENTRICITY":0.00025516,"INCLINATION":87.882,"RA_OF_ASC_NODE":49.2943,"ARG_OF_PERICENTER":100.4057,"MEAN_ANOMALY":259.7359,"EPHEMERIS_TYPE":0,"CLASSIFICATION_TYPE":"U","NORAD_CAT_ID":55163,"ELEMENT_SET_NO":999,"REV_AT_EPOCH":14720,"BSTAR":-0.00069582263,"MEAN_MOTION_DOT":-2.34e-6,"MEAN_MOTION_DDOT":0},{"OBJECT_NAME":"ONEWEB-0623","OBJECT_ID":"2023-004AA","EPOCH":"2026-01-25T17:07:50.369088","MEAN_MOTION":13.17651311,"ECCENTRICITY":0.00025653,"INCLINATION":87.9085,"RA_OF_ASC_NODE":34.1944,"ARG_OF_PERICENTER":86.4825,"MEAN_ANOMALY":273.66,"EPHEMERIS_TYPE":0,"CLASSIFICATION_TYPE":"U","NORAD_CAT_ID":55164,"ELEMENT_SET_NO":999,"REV_AT_EPOCH":14882,"BSTAR":0.00030701737,"MEAN_MOTION_DOT":1.32e-6,"MEAN_MOTION_DDOT":0},{"OBJECT_NAME":"ONEWEB-0624","OBJECT_ID":"2023-004AB","EPOCH":"2026-01-25T23:43:34.712544","MEAN_MOTION":13.12922938,"ECCENTRICITY":0.00020704,"INCLINATION":87.8931,"RA_OF_ASC_NODE":18.8416,"ARG_OF_PERICENTER":88.0004,"MEAN_ANOMALY":272.1362,"EPHEMERIS_TYPE":0,"CLASSIFICATION_TYPE":"U","NORAD_CAT_ID":55165,"ELEMENT_SET_NO":999,"REV_AT_EPOCH":14941,"BSTAR":-0.00047462998,"MEAN_MOTION_DOT":-1.59e-6,"MEAN_MOTION_DDOT":0},{"OBJECT_NAME":"ONEWEB-0625","OBJECT_ID":"2023-004AC","EPOCH":"2026-01-26T02:00:00.504288","MEAN_MOTION":13.17649796,"ECCENTRICITY":0.00016544,"INCLINATION":87.908,"RA_OF_ASC_NODE":34.1145,"ARG_OF_PERICENTER":84.9023,"MEAN_ANOMALY":275.2297,"EPHEMERIS_TYPE":0,"CLASSIFICATION_TYPE":"U","NORAD_CAT_ID":55166,"ELEMENT_SET_NO":999,"REV_AT_EPOCH":14886,"BSTAR":0.00026295038,"MEAN_MOTION_DOT":1.15e-6,"MEAN_MOTION_DDOT":0},{"OBJECT_NAME":"ONEWEB-0626","OBJECT_ID":"2023-004AD","EPOCH":"2026-01-26T07:13:27.937920","MEAN_MOTION":13.17649198,"ECCENTRICITY":0.00016364,"INCLINATION":87.9082,"RA_OF_ASC_NODE":34.0716,"ARG_OF_PERICENTER":105.4812,"MEAN_ANOMALY":254.65,"EPHEMERIS_TYPE":0,"CLASSIFICATION_TYPE":"U","NORAD_CAT_ID":55167,"ELEMENT_SET_NO":999,"REV_AT_EPOCH":14889,"BSTAR":-6.8591541e-5,"MEAN_MOTION_DOT":-1.4e-7,"MEAN_MOTION_DDOT":0},{"OBJECT_NAME":"ONEWEB-0627","OBJECT_ID":"2023-004AE","EPOCH":"2026-01-26T06:56:26.204352","MEAN_MOTION":13.17650955,"ECCENTRICITY":0.00023704,"INCLINATION":87.9078,"RA_OF_ASC_NODE":34.0739,"ARG_OF_PERICENTER":90.5904,"MEAN_ANOMALY":269.5499,"EPHEMERIS_TYPE":0,"CLASSIFICATION_TYPE":"U","NORAD_CAT_ID":55168,"ELEMENT_SET_NO":999,"REV_AT_EPOCH":14889,"BSTAR":-1.4176428e-5,"MEAN_MOTION_DOT":7.0e-8,"MEAN_MOTION_DDOT":0}]
